ORBCOMM FM33            
1 25983U 99065D   24135.93231247  .00002747  00000+0  95142-3 0  9995
2 25983  45.0284  89.0344 0008416 229.0488 234.6788 14.37703364278702
ORBCOMM FM36            
1 25984U 99065E   24135.40161422  .00001768  00000+0  65654-3 0  9992
2 25984  45.0376 177.1165 0001223 100.8908 259.2077 14.35595108277062
ORBCOMM FM35            
1 25985U 99065F   24135.79274505  .00002094  00000+0  77511-3 0  9990
2 25985  45.0378 177.9334 0004505 229.3375 130.7082 14.35169057277511
ORBCOMM FM34            
1 25986U 99065G   24135.83288200  .00001725  00000+0  64770-3 0  9996
2 25986  45.0372 178.2794 0003057 183.0989 176.9840 14.35136414277670
ORBCOMM FM38            
1 33060U 08031A   24135.96205755  .00004268  00000+0  61953-3 0  9994
2 33060  48.4415  47.6838 0005278 135.5722 224.5616 14.77571539855781
ORBCOMM FM41            
1 33061U 08031B   24135.49945792  .00004052  00000+0  59355-3 0  9999
2 33061  48.4450  56.5057 0004353 118.1125  52.3467 14.77295046855215
ORBCOMM FM29            
1 33062U 08031C   24135.21422719  .00003970  00000+0  58298-3 0  9992
2 33062  48.4398  65.8922 0006186 114.2010  38.9198 14.77225641855087
ORBCOMM FM39            
1 33063U 08031D   24135.55947856  .00004335  00000+0  64867-3 0  9999
2 33063  48.4405  84.8039 0007069  89.0021 271.1702 14.76230307854837
